[{"spaceTrack":{"CCSDS_OMM_VERS":"2.0","COMMENT":"GENERATED VIA SPACE-TRACK.ORG API","CREATION_DATE":"2020-09-20 02:31:57","ORIGINATOR":"18 SPCS","OBJECT_NAME":"STARLINK-1009","OBJECT_ID":"2019-074C","CENTER_NAME":"EARTH","REF_FRAME":"TEME","TIME_SYSTEM":"UTC","MEAN_ELEMENT_THEORY":"SGP4","EPOCH":"2020-09-19 20:00:01.000224","MEAN_MOTION":15.05612352,"ECCENTRICITY":0.0001572,"INCLINATION":53,"RA_OF_ASC_NODE":150.8535,"ARG_OF_PERICENTER":86.3595,"MEAN_ANOMALY":103.5663,"EPHEMERIS_TYPE":0,"CLASSIFICATION_TYPE":"U","NORAD_CAT_ID":44715,"ELEMENT_SET_NO":999,"REV_AT_EPOCH":180,"BSTAR":-0.0020971,"MEAN_MOTION_DOT":-0.00030729,"MEAN_MOTION_DDOT":0,"SEMIMAJOR_AXIS":6927.763,"PERIOD":95.642,"APOAPSIS":550.717,"PERIAPSIS":548.539,"OBJECT_TYPE":"PAYLOAD","RCS_SIZE":"LARGE","COUNTRY_CODE":"US","LAUNCH_DATE":"2019-11-11","SITE":"AFETR","DECAY_DATE":null,"DECAYED":0,"FILE":2828634,"GP_ID":161761222,"TLE_LINE0":"0 STARLINK-1009","TLE_LINE1":"1 44715U 19074C   20263.83334491 -.00030729 +00000-0 -20971-2 0  9994","TLE_LINE2":"2 44715 053.0000 150.8535 0001572 086.3595 103.5663 15.05612352001802"},"version":"v1.0","launch":"5eb87d39ffd86e000604b37d","longitude":-137.85425824914097,"latitude":-46.140117239282425,"height_km":566.4203889873161,"velocity_kms":7.577201949215705,"id":"5eed7714096e590006985642"},{"spaceTrack":{"CCSDS_OMM_VERS":"2.0","COMMENT":"GENERATED VIA SPACE-TRACK.ORG API","CREATION_DATE":"2020-09-20 06:36:10","ORIGINATOR":"18 SPCS","OBJECT_NAME":"STARLINK-1010","OBJECT_ID":"2019-074D","CENTER_NAME":"EARTH","REF_FRAME":"TEME","TIME_SYSTEM":"UTC","MEAN_ELEMENT_THEORY":"SGP4","EPOCH":"2020-09-20 04:00:00.999936","MEAN_MOTION":15.05582092,"ECCENTRICITY":0.000138,"INCLINATION":52.9983,"RA_OF_ASC_NODE":149.3573,"ARG_OF_PERICENTER":84.95,"MEAN_ANOMALY":166.643,"EPHEMERIS_TYPE":0,"CLASSIFICATION_TYPE":"U","NORAD_CAT_ID":44716,"ELEMENT_SET_NO":999,"REV_AT_EPOCH":4800,"BSTAR":0.000016487,"MEAN_MOTION_DOT":-3.9e-7,"MEAN_MOTION_DDOT":0,"SEMIMAJOR_AXIS":6927.856,"PERIOD":95.644,"APOAPSIS":550.677,"PERIAPSIS":548.765,"OBJECT_TYPE":"PAYLOAD","RCS_SIZE":"LARGE","COUNTRY_CODE":"US","LAUNCH_DATE":"2019-11-11","SITE":"AFETR","DECAY_DATE":null,"DECAYED":0,"FILE":2828853,"GP_ID":161766759,"TLE_LINE0":"0 STARLINK-1010","TLE_LINE1":"1 44716U 19074D   20264.16667824 -.00000039  00000-0  16487-4 0  9990","TLE_LINE2":"2 44716  52.9983 149.3573 0001380  84.9500 166.6430 15.05582092 48005"},"version":"v1.0","launch":"5eb87d39ffd86e000604b37d","longitude":-92.86252227808019,"latitude":-8.274854671950791,"height_km":552.1419110679199,"velocity_kms":7.586337058605734,"id":"5eed7714096e590006985648"},{"spaceTrack":{"CCSDS_OMM_VERS":"2.0","COMMENT":"GENERATED VIA SPACE-TRACK.ORG API","CREATION_DATE":"2020-09-20 14:46:10","ORIGINATOR":"18 SPCS","OBJECT_NAME":"STARLINK-1007","OBJECT_ID":"2019-074A","CENTER_NAME":"EARTH","REF_FRAME":"TEME","TIME_SYSTEM":"UTC","MEAN_ELEMENT_THEORY":"SGP4","EPOCH":"2020-09-20 14:00:01.000224","MEAN_MOTION":15.05565479,"ECCENTRICITY":0.000204,"INCLINATION":52.9987,"RA_OF_ASC_NODE":147.4877,"ARG_OF_PERICENTER":90.3824,"MEAN_ANOMALY":62.8267,"EPHEMERIS_TYPE":0,"CLASSIFICATION_TYPE":"U","NORAD_CAT_ID":44713,"ELEMENT_SET_NO":999,"REV_AT_EPOCH":4807,"BSTAR":0.002535,"MEAN_MOTION_DOT":0.00036835,"MEAN_MOTION_DDOT":0,"SEMIMAJOR_AXIS":6927.907,"PERIOD":95.645,"APOAPSIS":551.185,"PERIAPSIS":548.359,"OBJECT_TYPE":"PAYLOAD","RCS_SIZE":"LARGE","COUNTRY_CODE":"US","LAUNCH_DATE":"2019-11-11","SITE":"AFETR","DECAY_DATE":null,"DECAYED":0,"FILE":2829296,"GP_ID":161775259,"TLE_LINE0":"0 STARLINK-1007","TLE_LINE1":"1 44713U 19074A   20264.58334491  .00036835  00000-0  25350-2 0  9993","TLE_LINE2":"2 44713  52.9987 147.4877 0002040  90.3824  62.8267 15.05565479 48078"},"version":"v1.0","launch":"5eb87d39ffd86e000604b37d","longitude":75.55824451983084,"latitude":22.231924168291357,"height_km":549.7299326768871,"velocity_kms":7.5905840172902295,"id":"5eed7714096e59000698564b"},{"spaceTrack":{"CCSDS_OMM_VERS":"2.0","COMMENT":"GENERATED VIA SPACE-TRACK.ORG API","CREATION_DATE":"2020-09-20 02:31:57","ORIGINATOR":"18 SPCS","OBJECT_NAME":"STARLINK-1016","OBJECT_ID":"2019-074K","CENTER_NAME":"EARTH","REF_FRAME":"TEME","TIME_SYSTEM":"UTC","MEAN_ELEMENT_THEORY":"SGP4","EPOCH":"2020-09-19 20:00:01.000224","MEAN_MOTION":15.05610315,"ECCENTRICITY":0.0002104,"INCLINATION":52.9987,"RA_OF_ASC_NODE":150.853,"ARG_OF_PERICENTER":82.8584,"MEAN_ANOMALY":71.0548,"EPHEMERIS_TYPE":0,"CLASSIFICATION_TYPE":"U","NORAD_CAT_ID":44722,"ELEMENT_SET_NO":999,"REV_AT_EPOCH":180,"BSTAR":-0.0021809,"MEAN_MOTION_DOT":-0.0003194,"MEAN_MOTION_DDOT":0,"SEMIMAJOR_AXIS":6927.769,"PERIOD":95.642,"APOAPSIS":551.092,"PERIAPSIS":548.177,"OBJECT_TYPE":"PAYLOAD","RCS_SIZE":"LARGE","COUNTRY_CODE":"US","LAUNCH_DATE":"2019-11-11","SITE":"AFETR","DECAY_DATE":null,"DECAYED":0,"FILE":2828634,"GP_ID":161761548,"TLE_LINE0":"0 STARLINK-1016","TLE_LINE1":"1 44722U 19074K   20263.83334491 -.00031940 +00000-0 -21809-2 0  9999","TLE_LINE2":"2 44722 052.9987 150.8530 0002104 082.8584 071.0548 15.05610315001806"},"version":"v1.0","launch":"5eb87d39ffd86e000604b37d","longitude":166.85521585702136,"latitude":-51.98121578073781,"height_km":569.2507595295228,"velocity_kms":7.5754185118548865,"id":"5eed7714096e59000698564d"},{"spaceTrack":{"CCSDS_OMM_VERS":"2.0","COMMENT":"GENERATED VIA SPACE-TRACK.ORG API","CREATION_DATE":"2020-09-20 06:36:10","ORIGINATOR":"18 SPCS","OBJECT_NAME":"STARLINK-1011","OBJECT_ID":"2019-074E","CENTER_NAME":"EARTH","REF_FRAME":"TEME","TIME_SYSTEM":"UTC","MEAN_ELEMENT_THEORY":"SGP4","EPOCH":"2020-09-20 04:00:00.999936","MEAN_MOTION":15.05558361,"ECCENTRICITY":0.0001572,"INCLINATION":52.9997,"RA_OF_ASC_NODE":169.3597,"ARG_OF_PERICENTER":81.2263,"MEAN_ANOMALY":348.1987,"EPHEMERIS_TYPE":0,"CLASSIFICATION_TYPE":"U","NORAD_CAT_ID":44717,"ELEMENT_SET_NO":999,"REV_AT_EPOCH":4772,"BSTAR":0.0027663,"MEAN_MOTION_DOT":0.00040233,"MEAN_MOTION_DDOT":0,"SEMIMAJOR_AXIS":6927.929,"PERIOD":95.645,"APOAPSIS":550.883,"PERIAPSIS":548.705,"OBJECT_TYPE":"PAYLOAD","RCS_SIZE":"LARGE","COUNTRY_CODE":"US","LAUNCH_DATE":"2019-11-11","SITE":"AFETR","DECAY_DATE":null,"DECAYED":0,"FILE":2828853,"GP_ID":161766755,"TLE_LINE0":"0 STARLINK-1011","TLE_LINE1":"1 44717U 19074E   20264.16667824  .00040233  00000-0  27663-2 0  9996","TLE_LINE2":"2 44717  52.9997 169.3597 0001572  81.2263 348.1987 15.05558361 47722"},"version":"v1.0","launch":"5eb87d39ffd86e000604b37d","longitude":105.87862964909522,"latitude":9.913467007239209,"height_km":549.7085051428221,"velocity_kms":7.589093255346233,"id":"5eed7714096e59000698564e"},{"spaceTrack":{"CCSDS_OMM_VERS":"2.0","COMMENT":"GENERATED VIA SPACE-TRACK.ORG API","CREATION_DATE":"2020-09-20 02:31:57","ORIGINATOR":"18 SPCS","OBJECT_NAME":"STARLINK-1015","OBJECT_ID":"2019-074J","CENTER_NAME":"EARTH","REF_FRAME":"TEME","TIME_SYSTEM":"UTC","MEAN_ELEMENT_THEORY":"SGP4","EPOCH":"2020-09-19 20:00:01.000224","MEAN_MOTION":15.05602421,"ECCENTRICITY":0.0001741,"INCLINATION":52.9997,"RA_OF_ASC_NODE":150.8556,"ARG_OF_PERICENTER":80.2821,"MEAN_ANOMALY":91.6487,"EPHEMERIS_TYPE":0,"CLASSIFICATION_TYPE":"U","NORAD_CAT_ID":44721,"ELEMENT_SET_NO":999,"REV_AT_EPOCH":180,"BSTAR":-0.002147,"MEAN_MOTION_DOT":-0.00031442,"MEAN_MOTION_DDOT":0,"SEMIMAJOR_AXIS":6927.794,"PERIOD":95.642,"APOAPSIS":550.865,"PERIAPSIS":548.452,"OBJECT_TYPE":"PAYLOAD","RCS_SIZE":"LARGE","COUNTRY_CODE":"US","LAUNCH_DATE":"2019-11-11","SITE":"AFETR","DECAY_DATE":null,"DECAYED":0,"FILE":2828634,"GP_ID":161760198,"TLE_LINE0":"0 STARLINK-1015","TLE_LINE1":"1 44721U 19074J   20263.83334491 -.00031442 +00000-0 -21470-2 0  9999","TLE_LINE2":"2 44721 052.9997 150.8556 0001741 080.2821 091.6487 15.05602421001805"},"version":"v1.0","launch":"5eb87d39ffd86e000604b37d","longitude":-163.78569414654876,"latitude":-52.454185376563316,"height_km":569.1699864085476,"velocity_kms":7.575622382454758,"id":"5eed7714096e59000698564f"},{"spaceTrack":{"CCSDS_OMM_VERS":"2.0","COMMENT":"GENERATED VIA SPACE-TRACK.ORG API","CREATION_DATE":"2020-09-20 14:46:10","ORIGINATOR":"18 SPCS","OBJECT_NAME":"STARLINK-1017","OBJECT_ID":"2019-074L","CENTER_NAME":"EARTH","REF_FRAME":"TEME","TIME_SYSTEM":"UTC","MEAN_ELEMENT_THEORY":"SGP4","EPOCH":"2020-09-20 14:00:01.000224","MEAN_MOTION":15.05564375,"ECCENTRICITY":0.0001617,"INCLINATION":52.9982,"RA_OF_ASC_NODE":147.4865,"ARG_OF_PERICENTER":80.7935,"MEAN_ANOMALY":108.3902,"EPHEMERIS_TYPE":0,"CLASSIFICATION_TYPE":"U","NORAD_CAT_ID":44723,"ELEMENT_SET_NO":999,"REV_AT_EPOCH":4807,"BSTAR":0.002392,"MEAN_MOTION_DOT":0.0003473,"MEAN_MOTION_DDOT":0,"SEMIMAJOR_AXIS":6927.91,"PERIOD":95.645,"APOAPSIS":550.896,"PERIAPSIS":548.655,"OBJECT_TYPE":"PAYLOAD","RCS_SIZE":"LARGE","COUNTRY_CODE":"US","LAUNCH_DATE":"2019-11-11","SITE":"AFETR","DECAY_DATE":null,"DECAYED":0,"FILE":2829295,"GP_ID":161775241,"TLE_LINE0":"0 STARLINK-1017","TLE_LINE1":"1 44723U 19074L   20264.58334491  .00034730  00000-0  23920-2 0  9997","TLE_LINE2":"2 44723  52.9982 147.4865 0001617  80.7935 108.3902 15.05564375 48072"},"version":"v1.0","launch":"5eb87d39ffd86e000604b37d","longitude":98.15738585475704,"latitude":-6.321714635555511,"height_km":551.9897542919725,"velocity_kms":7.586415195081832,"id":"5eed7714096e590006985650"}]